CTC1_L_00583007-03
1 61809U 24916ON  26070.40840278  .00000000  00000+0  00000-0 0  9993
2 61809  50.0000 180.0000 0000000   0.0000 144.0000  6.70625815    10
CTC1_L_00583007-04
1 61810U 22335RU  26070.40840278  .00000000  00000+0  00000-0 0  9998
2 61810  50.0000 180.0000 0000000   0.0000 180.0000  6.70625815    12
CTC1_L_00583007-05
1 61811U 24315QN  26070.40840278  .00000000  00000+0  00000-0 0  9999
2 61811  50.0000 180.0000 0000000   0.0000 216.0000  6.70625815    13
CTC1_L_00583007-06
1 61812U 23272VZ  26070.40840278  .00000000  00000+0  00000-0 0  9991
2 61812  50.0000 180.0000 0000000   0.0000 252.0000  6.70625815    14
CTC1_L_00583007-07
1 61813U 26396DB  26070.40840278  .00000000  00000+0  00000-0 0  9992
2 61813  50.0000 180.0000 0000000   0.0000 288.0000  6.70625815    14
CTC1_L_00583007-08
1 61814U 22584EO  26070.40840278  .00000000  00000+0  00000-0 0  9998
2 61814  50.0000 180.0000 0000000   0.0000 324.0000  6.70625815    16
CTC1_L_00583007-09
1 61815U 26899KM  26070.40840278  .00000000  00000+0  00000-0 0  9992
2 61815  50.0000 180.0000 0000000   0.0000   0.0000  6.70625815    18
CTC1_L_00583007-10
1 61816U 23668KO  26070.40840278  .00000000  00000+0  00000-0 0  9994
2 61816  50.0000 180.0000 0000000   0.0000  36.0000  6.70625815    18
CTC1_L_00583008-01
1 61817U 24614SG  26070.40840278  .00000000  00000+0  00000-0 0  9997
2 61817  50.0000 210.0000 0000000   0.0000  84.0000  6.70625815    16
CTC1_L_00583008-02
1 61818U 26055SS  26070.40840278  .00000000  00000+0  00000-0 0  9999
2 61818  50.0000 210.0000 0000000   0.0000 120.0000  6.70625815    18
CTC1_L_00583008-03
1 61819U 22841JP  26070.40840278  .00000000  00000+0  00000-0 0  9999
2 61819  50.0000 210.0000 0000000   0.0000 156.0000  6.70625815    18
CTC1_L_00583008-04
1 61820U 26212UA  26070.40840278  .00000000  00000+0  00000-0 0  9997
2 61820  50.0000 210.0000 0000000   0.0000 192.0000  6.70625815    10
CTC1_L_00583008-05
1 61821U 25993JX  26070.40840278  .00000000  00000+0  00000-0 0  9993
2 61821  50.0000 210.0000 0000000   0.0000 228.0000  6.70625815    11
CTC1_L_00583008-06
1 61822U 25028W   26070.40840278  .00000000  00000+0  00000-0 0  9993
2 61822  50.0000 210.0000 0000000   0.0000 264.0000  6.70625815    12
CTC1_L_00583008-07
1 61823U 22919MB  26070.40840278  .00000000  00000+0  00000-0 0  9990
2 61823  50.0000 210.0000 0000000   0.0000 300.0000  6.70625815    14
CTC1_L_00583008-08
1 61824U 26262AA  26070.40840278  .00000000  00000+0  00000-0 0  9996
2 61824  50.0000 210.0000 0000000   0.0000 336.0000  6.70625815    14
CTC1_L_00583008-09
1 61825U 24158TT  26070.40840278  .00000000  00000+0  00000-0 0  9999
2 61825  50.0000 210.0000 0000000   0.0000  12.0000  6.70625815    16
CTC1_L_00583008-10
1 61826U 22669OX  26070.40840278  .00000000  00000+0  00000-0 0  9995
2 61826  50.0000 210.0000 0000000   0.0000  48.0000  6.70625815    16
CTC1_L_00583009-01
1 61827U 26421XL  26070.40840278  .00000000  00000+0  00000-0 0  9996
2 61827  50.0000 240.0000 0000000   0.0000  96.0000  6.70625815    13
CTC1_L_00583009-02
1 61828U 26240CC  26070.40840278  .00000000  00000+0  00000-0 0  9996
2 61828  50.0000 240.0000 0000000   0.0000 132.0000  6.70625815    15
CTC1_L_00583009-03
1 61829U 24151VO  26070.40840278  .00000000  00000+0  00000-0 0  9996
2 61829  50.0000 240.0000 0000000   0.0000 168.0000  6.70625815    15
CTC1_L_00583009-04
1 61830U 22507PE  26070.40840278  .00000000  00000+0  00000-0 0  9991
2 61830  50.0000 240.0000 0000000   0.0000 204.0000  6.70625815    18
CTC1_L_00583009-05
1 61831U 22325AI  26070.40840278  .00000000  00000+0  00000-0 0  9990
2 61831  50.0000 240.0000 0000000   0.0000 240.0000  6.70625815    19
CTC1_L_00583009-06
1 61832U 23931GH  26070.40840278  .00000000  00000+0  00000-0 0  9995
2 61832  50.0000 240.0000 0000000   0.0000 276.0000  6.70625815    19
CTC1_L_00583009-07
1 61833U 25064OR  26070.40840278  .00000000  00000+0  00000-0 0  9995
2 61833  50.0000 240.0000 0000000   0.0000 312.0000  6.70625815    11
CTC1_L_00583009-08
1 61834U 22890EL  26070.40840278  .00000000  00000+0  00000-0 0  9990
2 61834  50.0000 240.0000 0000000   0.0000 348.0000  6.70625815    11
CTC1_L_00583009-09
1 61835U 25096SA  26070.40840278  .00000000  00000+0  00000-0 0  9992
2 61835  50.0000 240.0000 0000000   0.0000  24.0000  6.70625815    13
CTC1_L_00583009-10
1 61836U 26531KD  26070.40840278  .00000000  00000+0  00000-0 0  9998
2 61836  50.0000 240.0000 0000000   0.0000  60.0000  6.70625815    14
CTC1_L_00583010-01
1 61837U 24600JV  26070.40840278  .00000000  00000+0  00000-0 0  9994
2 61837  50.0000 270.0000 0000000   0.0000 108.0000  6.70625815    11
CTC1_L_00583010-02
1 61838U 24181CA  26070.40840278  .00000000  00000+0  00000-0 0  9999
2 61838  50.0000 270.0000 0000000   0.0000 144.0000  6.70625815    12
CTC1_L_00583010-03
1 61839U 26933LD  26070.40840278  .00000000  00000+0  00000-0 0  9997
2 61839  50.0000 270.0000 0000000   0.0000 180.0000  6.70625815    13
CTC1_L_00583010-04
1 61840U 25693CA  26070.40840278  .00000000  00000+0  00000-0 0  9991
2 61840  50.0000 270.0000 0000000   0.0000 216.0000  6.70625815    15
CTC1_L_00583010-05
1 61841U 25419FU  26070.40840278  .00000000  00000+0  00000-0 0  9998
2 61841  50.0000 270.0000 0000000   0.0000 252.0000  6.70625815    16
CTC1_L_00583010-06
1 61842U 26725JA  26070.40840278  .00000000  00000+0  00000-0 0  9990
2 61842  50.0000 270.0000 0000000   0.0000 288.0000  6.70625815    16
CTC1_L_00583010-07
1 61843U 23808HT  26070.40840278  .00000000  00000+0  00000-0 0  9990
2 61843  50.0000 270.0000 0000000   0.0000 324.0000  6.70625815    18
CTC1_L_00583010-08
1 61844U 23242YD  26070.40840278  .00000000  00000+0  00000-0 0  9993
2 61844  50.0000 270.0000 0000000   0.0000   0.0000  6.70625815    10
CTC1_L_00583010-09
1 61845U 25258LD  26070.40840278  .00000000  00000+0  00000-0 0  9993
2 61845  50.0000 270.0000 0000000   0.0000  36.0000  6.70625815    10
CTC1_L_00583010-10
1 61846U 25268UQ  26070.40840278  .00000000  00000+0  00000-0 0  9995
2 61846  50.0000 270.0000 0000000   0.0000  72.0000  6.70625815    11
CTC1_L_00583011-01
1 61847U 23682GQ  26070.40840278  .00000000  00000+0  00000-0 0  9994
2 61847  50.0000 300.0000 0000000   0.0000 120.0000  6.70625815    10
CTC1_L_00583011-02
1 61848U 22303HA  26070.40840278  .00000000  00000+0  00000-0 0  9994
2 61848  50.0000 300.0000 0000000   0.0000 156.0000  6.70625815    10
CTC1_L_00583011-03
1 61849U 25495WO  26070.40840278  .00000000  00000+0  00000-0 0  9990
2 61849  50.0000 300.0000 0000000   0.0000 192.0000  6.70625815    11
CTC1_L_00583011-04
1 61850U 26307ZQ  26070.40840278  .00000000  00000+0  00000-0 0  9995
2 61850  50.0000 300.0000 0000000   0.0000 228.0000  6.70625815    13
CTC1_L_00583011-05
1 61851U 23204JM  26070.40840278  .00000000  00000+0  00000-0 0  9999
2 61851  50.0000 300.0000 0000000   0.0000 264.0000  6.70625815    14
CTC1_L_00583011-06
1 61852U 26028LW  26070.40840278  .00000000  00000+0  00000-0 0  9997
2 61852  50.0000 300.0000 0000000   0.0000 300.0000  6.70625815    16
CTC1_L_00583011-07
1 61853U 24314IO  26070.40840278  .00000000  00000+0  00000-0 0  9994
2 61853  50.0000 300.0000 0000000   0.0000 336.0000  6.70625815    16
CTC1_L_00583011-08
1 61854U 23316IJ  26070.40840278  .00000000  00000+0  00000-0 0  9996
2 61854  50.0000 300.0000 0000000   0.0000  12.0000  6.70625815    18
CTC1_L_00583011-09
1 61855U 25915XI  26070.40840278  .00000000  00000+0  00000-0 0  9994
2 61855  50.0000 300.0000 0000000   0.0000  48.0000  6.70625815    18
CTC1_L_00583011-10
1 61856U 22100RU  26070.40840278  .00000000  00000+0  00000-0 0  9998
2 61856  50.0000 300.0000 0000000   0.0000  84.0000  6.70625815    19
CTC1_L_00583012-01
1 61857U 25723GO  26070.40840278  .00000000  00000+0  00000-0 0  9993
2 61857  50.0000 330.0000 0000000   0.0000 132.0000  6.70625815    17
CTC1_L_00583012-02
1 61858U 23680MV  26070.40840278  .00000000  00000+0  00000-0 0  9994
2 61858  50.0000 330.0000 0000000   0.0000 168.0000  6.70625815    17
CTC1_L_00583012-03
1 61859U 22535ZD  26070.40840278  .00000000  00000+0  00000-0 0  9993
2 61859  50.0000 330.0000 0000000   0.0000 204.0000  6.70625815    19
CTC1_L_00583012-04
1 61860U 24585YG  26070.40840278  .00000000  00000+0  00000-0 0  9992
2 61860  50.0000 330.0000 0000000   0.0000 240.0000  6.70625815    11
CTC1_L_00583012-05
1 61861U 23513SR  26070.40840278  .00000000  00000+0  00000-0 0  9993
2 61861  50.0000 330.0000 0000000   0.0000 276.0000  6.70625815    11
CTC1_L_00583012-06
1 61862U 26799IX  26070.40840278  .00000000  00000+0  00000-0 0  9993
2 61862  50.0000 330.0000 0000000   0.0000 312.0000  6.70625815    13
CTC1_L_00583012-07
1 61863U 25516YZ  26070.40840278  .00000000  00000+0  00000-0 0  9990
2 61863  50.0000 330.0000 0000000   0.0000 348.0000  6.70625815    13
CTC1_L_00583012-08
1 61864U 24617DF  26070.40840278  .00000000  00000+0  00000-0 0  9992
2 61864  50.0000 330.0000 0000000   0.0000  24.0000  6.70625815    15
CTC1_L_00583012-09
1 61865U 23913ML  26070.40840278  .00000000  00000+0  00000-0 0  9991
2 61865  50.0000 330.0000 0000000   0.0000  60.0000  6.70625815    16
CTC1_L_00583012-10
1 61866U 25521MY  26070.40840278  .00000000  00000+0  00000-0 0  9999
2 61866  50.0000 330.0000 0000000   0.0000  96.0000  6.70625815    16
